{
  "type": "FeatureCollection",
  "features": [
    {
      "type": "Feature",
      "properties": {
        "norad_id": 35915,
        "name": "IRIDIUM 33 DEB",
        "group": "iridium-33-debris",
        "lat": 53.01410977343491,
        "lon": 153.77728805528767,
        "alt_km": 613.8610157906123,
        "timestamp": "2025-12-22T04:03:39.554308+00:00",
        "meta_object_name": "IRIDIUM 33 DEB",
        "meta_object_id": "1997-051TY",
        "meta_epoch": "2025-12-21T06:24:31.855104",
        "meta_mean_motion": 14.80926982,
        "meta_eccentricity": 0.0012051,
        "meta_inclination": 86.3439,
        "meta_ra_of_asc_node": 339.0596,
        "meta_arg_of_pericenter": 155.4258,
        "meta_mean_anomaly": 204.754,
        "meta_ephemeris_type": 0,
        "meta_classification_type": "U",
        "meta_norad_cat_id": 35915,
        "meta_element_set_no": 999,
        "meta_rev_at_epoch": 8212,
        "meta_bstar": 0.0012339,
        "meta_mean_motion_dot": 9.58e-05,
        "meta_mean_motion_ddot": 0,
        "tle_line1": "1 35915U 97051TY  25355.26703536  .00009580  00000+0  12339-2 0  9998",
        "tle_line2": "2 35915  86.3439 339.0596 0012051 155.4258 204.7540 14.80926982 82126"
      },
      "geometry": {
        "type": "Point",
        "coordinates": [
          153.77728805528767,
          53.01410977343491
        ]
      }
    },
    {
      "type": "Feature",
      "properties": {
        "norad_id": 35918,
        "name": "IRIDIUM 33 DEB",
        "group": "iridium-33-debris",
        "lat": -0.8434027062163928,
        "lon": 71.71583606785669,
        "alt_km": 739.9219670881967,
        "timestamp": "2025-12-22T04:03:39.554318+00:00",
        "meta_object_name": "IRIDIUM 33 DEB",
        "meta_object_id": "1997-051UB",
        "meta_epoch": "2025-12-21T11:36:19.258272",
        "meta_mean_motion": 14.51310312,
        "meta_eccentricity": 0.00282932,
        "meta_inclination": 86.4008,
        "meta_ra_of_asc_node": 72.0632,
        "meta_arg_of_pericenter": 141.628,
        "meta_mean_anomaly": 237.8155,
        "meta_ephemeris_type": 0,
        "meta_classification_type": "U",
        "meta_norad_cat_id": 35918,
        "meta_element_set_no": 999,
        "meta_rev_at_epoch": 85334,
        "meta_bstar": 0.00077199623,
        "meta_mean_motion_dot": 3.108e-05,
        "meta_mean_motion_ddot": 0,
        "tle_line1": "1 35918U 97051UB  25355.48355623  .00003108  00000+0  77200-3 0  9994",
        "tle_line2": "2 35918  86.4008  72.0632 0028293 141.6280 237.8155 14.51310312853345"
      },
      "geometry": {
        "type": "Point",
        "coordinates": [
          71.71583606785669,
          -0.8434027062163928
        ]
      }
    },
    {
      "type": "Feature",
      "properties": {
        "norad_id": 35929,
        "name": "IRIDIUM 33 DEB",
        "group": "iridium-33-debris",
        "lat": 53.873326427621706,
        "lon": -46.802464558124555,
        "alt_km": 544.8443167326359,
        "timestamp": "2025-12-22T04:03:39.554328+00:00",
        "meta_object_name": "IRIDIUM 33 DEB",
        "meta_object_id": "1997-051UN",
        "meta_epoch": "2025-12-19T03:54:47.819808",
        "meta_mean_motion": 15.02824577,
        "meta_eccentricity": 0.00169983,
        "meta_inclination": 86.3333,
        "meta_ra_of_asc_node": 309.5832,
        "meta_arg_of_pericenter": 16.9141,
        "meta_mean_anomaly": 343.2656,
        "meta_ephemeris_type": 0,
        "meta_classification_type": "U",
        "meta_norad_cat_id": 35929,
        "meta_element_set_no": 999,
        "meta_rev_at_epoch": 87876,
        "meta_bstar": 0.0020745591,
        "meta_mean_motion_dot": 0.00027961,
        "meta_mean_motion_ddot": 0,
        "tle_line1": "1 35929U 97051UN  25353.16305347  .00027961  00000+0  20746-2 0  9992",
        "tle_line2": "2 35929  86.3333 309.5832 0016998  16.9141 343.2656 15.02824577878767"
      },
      "geometry": {
        "type": "Point",
        "coordinates": [
          -46.802464558124555,
          53.873326427621706
        ]
      }
    },
    {
      "type": "Feature",
      "properties": {
        "norad_id": 36011,
        "name": "IRIDIUM 33 DEB",
        "group": "iridium-33-debris",
        "lat": 72.14848580237987,
        "lon": 42.83750424606914,
        "alt_km": 752.0489571927556,
        "timestamp": "2025-12-22T04:03:39.554339+00:00",
        "meta_object_name": "IRIDIUM 33 DEB",
        "meta_object_id": "1997-051US",
        "meta_epoch": "2025-12-20T20:53:54.330144",
        "meta_mean_motion": 14.41351593,
        "meta_eccentricity": 0.0018529,
        "meta_inclination": 86.3402,
        "meta_ra_of_asc_node": 31.9321,
        "meta_arg_of_pericenter": 188.5725,
        "meta_mean_anomaly": 351.0197,
        "meta_ephemeris_type": 0,
        "meta_classification_type": "U",
        "meta_norad_cat_id": 36011,
        "meta_element_set_no": 999,
        "meta_rev_at_epoch": 64657,
        "meta_bstar": 0.00031216,
        "meta_mean_motion_dot": 1.032e-05,
        "meta_mean_motion_ddot": 0,
        "tle_line1": "1 36011U 97051US  25354.87076771  .00001032  00000+0  31216-3 0  9996",
        "tle_line2": "2 36011  86.3402  31.9321 0018529 188.5725 351.0197 14.41351593646576"
      },
      "geometry": {
        "type": "Point",
        "coordinates": [
          42.83750424606914,
          72.14848580237987
        ]
      }
    },
    {
      "type": "Feature",
      "properties": {
        "norad_id": 36012,
        "name": "IRIDIUM 33 DEB",
        "group": "iridium-33-debris",
        "lat": -32.53563316379492,
        "lon": -58.545881264299815,
        "alt_km": 843.2151114828284,
        "timestamp": "2025-12-22T04:03:39.554349+00:00",
        "meta_object_name": "IRIDIUM 33 DEB",
        "meta_object_id": "1997-051UT",
        "meta_epoch": "2025-12-21T14:40:45.615648",
        "meta_mean_motion": 14.192189,
        "meta_eccentricity": 0.021114,
        "meta_inclination": 86.4405,
        "meta_ra_of_asc_node": 303.9547,
        "meta_arg_of_pericenter": 234.6485,
        "meta_mean_anomaly": 123.481,
        "meta_ephemeris_type": 0,
        "meta_classification_type": "U",
        "meta_norad_cat_id": 36012,
        "meta_element_set_no": 999,
        "meta_rev_at_epoch": 65610,
        "meta_bstar": 0.0033212,
        "meta_mean_motion_dot": 8.712e-05,
        "meta_mean_motion_ddot": 0,
        "tle_line1": "1 36012U 97051UT  25355.61163907  .00008712  00000+0  33212-2 0  9997",
        "tle_line2": "2 36012  86.4405 303.9547 0211140 234.6485 123.4810 14.19218900656105"
      },
      "geometry": {
        "type": "Point",
        "coordinates": [
          -58.545881264299815,
          -32.53563316379492
        ]
      }
    },
    {
      "type": "Feature",
      "properties": {
        "norad_id": 36028,
        "name": "IRIDIUM 33 DEB",
        "group": "iridium-33-debris",
        "lat": 62.9434979732287,
        "lon": 115.02622485009965,
        "alt_km": 575.1408686535351,
        "timestamp": "2025-12-22T04:03:39.554359+00:00",
        "meta_object_name": "IRIDIUM 33 DEB",
        "meta_object_id": "1997-051VK",
        "meta_epoch": "2025-12-19T03:17:05.091936",
        "meta_mean_motion": 14.95591145,
        "meta_eccentricity": 0.00208389,
        "meta_inclination": 86.3218,
        "meta_ra_of_asc_node": 303.6882,
        "meta_arg_of_pericenter": 33.6007,
        "meta_mean_anomaly": 326.6539,
        "meta_ephemeris_type": 0,
        "meta_classification_type": "U",
        "meta_norad_cat_id": 36028,
        "meta_element_set_no": 999,
        "meta_rev_at_epoch": 87220,
        "meta_bstar": 0.001783846,
        "meta_mean_motion_dot": 0.00019939,
        "meta_mean_motion_ddot": 0,
        "tle_line1": "1 36028U 97051VK  25353.13686449  .00019939  00000+0  17838-2 0  9999",
        "tle_line2": "2 36028  86.3218 303.6882 0020838  33.6007 326.6539 14.95591145872206"
      },
      "geometry": {
        "type": "Point",
        "coordinates": [
          115.02622485009965,
          62.9434979732287
        ]
      }
    },
    {
      "type": "Feature",
      "properties": {
        "norad_id": 36080,
        "name": "IRIDIUM 33 DEB",
        "group": "iridium-33-debris",
        "lat": 62.328465780249246,
        "lon": 176.8278200985722,
        "alt_km": 717.3836376436939,
        "timestamp": "2025-12-22T04:03:39.554369+00:00",
        "meta_object_name": "IRIDIUM 33 DEB",
        "meta_object_id": "1997-051VM",
        "meta_epoch": "2025-12-19T07:27:26.572608",
        "meta_mean_motion": 14.4663152,
        "meta_eccentricity": 0.0018893,
        "meta_inclination": 86.3193,
        "meta_ra_of_asc_node": 5.1242,
        "meta_arg_of_pericenter": 135.9522,
        "meta_mean_anomaly": 224.319,
        "meta_ephemeris_type": 0,
        "meta_classification_type": "U",
        "meta_norad_cat_id": 36080,
        "meta_element_set_no": 999,
        "meta_rev_at_epoch": 47509,
        "meta_bstar": 0.00042458,
        "meta_mean_motion_dot": 1.555e-05,
        "meta_mean_motion_ddot": 0,
        "tle_line1": "1 36080U 97051VM  25353.31072422  .00001555  00000+0  42458-3 0  9999",
        "tle_line2": "2 36080  86.3193   5.1242 0018893 135.9522 224.3190 14.46631520475097"
      },
      "geometry": {
        "type": "Point",
        "coordinates": [
          176.8278200985722,
          62.328465780249246
        ]
      }
    }
  ]
}